[{"OBJECT_NAME":"TIANHUI 5C","OBJECT_ID":"2024-126A","EPOCH":"2026-03-09T13:08:56.446656","MEAN_MOTION":14.87585548,"ECCENTRICITY":0.0001564,"INCLINATION":97.8217,"RA_OF_ASC_NODE":77.5195,"ARG_OF_PERICENTER":89.5456,"MEAN_ANOMALY":270.594,"EPHEMERIS_TYPE":0,"CLASSIFICATION_TYPE":"U","NORAD_CAT_ID":60211,"ELEMENT_SET_NO":999,"REV_AT_EPOCH":9107,"BSTAR":7.97e-5,"MEAN_MOTION_DOT":6.7e-6,"MEAN_MOTION_DDOT":0},{"OBJECT_NAME":"GEESAT-6 05","OBJECT_ID":"2025-214F","EPOCH":"2026-03-09T22:35:26.117664","MEAN_MOTION":14.83005779,"ECCENTRICITY":0.0012614,"INCLINATION":49.9792,"RA_OF_ASC_NODE":48.1153,"ARG_OF_PERICENTER":192.2595,"MEAN_ANOMALY":167.8037,"EPHEMERIS_TYPE":0,"CLASSIFICATION_TYPE":"U","NORAD_CAT_ID":65717,"ELEMENT_SET_NO":999,"REV_AT_EPOCH":2477,"BSTAR":0.00036224871,"MEAN_MOTION_DOT":2.753e-5,"MEAN_MOTION_DDOT":0}]
